*******************************************************************************
Ephemeris / WWW_USER Mon Mar 24 08:33:57 2025 Pasadena, USA      / Horizons    
*******************************************************************************
Target body name: (2018 WD2)                      {source: JPL#7}
Center body name: Earth (399)                     {source: DE441}
Center-site name: Mauna Kea
*******************************************************************************
Start time      : A.D. 2018-Dec-06 03:52:00.0000 UT      
Stop  time      : A.D. 2018-Dec-06 16:33:00.0000 UT      
Step-size       : 1 minutes
*******************************************************************************
Target pole/equ : undefined
Target radii    : undefined                                                    
Center geodetic : 204.5278, 19.8260847, 4.21024   {E-lon(deg),Lat(deg),Alt(km)}
Center cylindric: 204.5278, 6006.35451, 2151.0229 {E-lon(deg),Dxy(km),Dz(km)}
Center pole/equ : ITRF93                          {East-longitude positive}
Center radii    : 6378.137, 6378.137, 6356.752 km {Equator_a, b, pole_c}       
Target primary  : Sun
Vis. interferer : MOON (R_eq= 1737.400) km        {source: DE441}
Rel. light bend : Sun                             {source: DE441}
Rel. lght bnd GM: 1.3271E+11 km^3/s^2                                          
Small-body perts: Yes                             {source: SB441-N16}
Atmos refraction: NO (AIRLESS)
RA format       : HMS
Time format     : CAL 
Calendar mode   : Mixed Julian/Gregorian
RTS-only print  : NO       
EOP file        : eop.250321.p250617                                           
EOP coverage    : DATA-BASED 1962-JAN-20 TO 2025-MAR-21. PREDICTS-> 2025-JUN-16
Units conversion: 1 au= 149597870.700 km, c= 299792.458 km/s, 1 day= 86400.0 s 
Table cut-offs 1: Elevation (-90.0deg=NO ),Airmass (>38.000=NO), Daylight (YES)
Table cut-offs 2: Solar elongation (  0.0,180.0=NO ),Local Hour Angle( 0.0=NO )
Table cut-offs 3: RA/DEC angular rate (     0.0=NO )                           
*******************************************************************************
Initial IAU76/J2000 heliocentric ecliptic osculating elements (au, days, deg.):
  EPOCH=  2458442.5 ! 2018-Nov-20.00 (TDB)         Residual RMS= .32422        
   EC= .524986067713519    QR= .9778174985080528   TP= 2458471.2675125618      
   OM= 251.0855257113189   W=  198.8561547827716   IN= 2.860917524648221       
  Equivalent ICRF heliocentric cartesian coordinates (au, au/d):
   X= 5.933978759455335E-01  Y= 7.796199626272187E-01  Z= 3.534710331364960E-01
  VX=-1.894544763705440E-02 VY= 7.774789113426014E-03 VZ= 2.252803318104249E-03
Asteroid physical parameters (km, seconds, rotational period in hours):        
   GM= n.a.                RAD= n.a.               ROTPER= n.a.                
   H= 26.2                 G= .150                 B-V= n.a.                   
                           ALBEDO= n.a.            STYP= n.a.                  
*******************************************************************************
 Date__(UT)__HR:MN     R.A._________(ICRF)_________DEC
******************************************************
$$SOE
 2018-Dec-06 16:10 Nm  09 21 08.904108 -01 12 39.48080
 2018-Dec-06 16:11 Nm  09 21 11.158692 -01 12 55.18177
 2018-Dec-06 16:12 Nm  09 21 13.412820 -01 13 10.87676
 2018-Dec-06 16:13 Nm  09 21 15.666496 -01 13 26.56575
 2018-Dec-06 16:14 Nm  09 21 17.919724 -01 13 42.24875
 2018-Dec-06 16:15 Nm  09 21 20.172505 -01 13 57.92576
 2018-Dec-06 16:16 Nm  09 21 22.424845 -01 14 13.59677
 2018-Dec-06 16:17 Nm  09 21 24.676745 -01 14 29.26179
 2018-Dec-06 16:18 Nm  09 21 26.928210 -01 14 44.92082
 2018-Dec-06 16:19 Nm  09 21 29.179243 -01 15 00.57385
 2018-Dec-06 16:20 Cm  09 21 31.429847 -01 15 16.22089
 2018-Dec-06 16:21 Cm  09 21 33.680025 -01 15 31.86193
 2018-Dec-06 16:22 Cm  09 21 35.929781 -01 15 47.49697
 2018-Dec-06 16:23 Cm  09 21 38.179117 -01 16 03.12602
 2018-Dec-06 16:24 Cm  09 21 40.428038 -01 16 18.74907
 2018-Dec-06 16:25 Cm  09 21 42.676546 -01 16 34.36612
 2018-Dec-06 16:26 Cm  09 21 44.924645 -01 16 49.97717
 2018-Dec-06 16:27 Cm  09 21 47.172338 -01 17 05.58222
 2018-Dec-06 16:28 Cm  09 21 49.419628 -01 17 21.18128
 2018-Dec-06 16:29 Cm  09 21 51.666519 -01 17 36.77433
 2018-Dec-06 16:30 Cm  09 21 53.913013 -01 17 52.36139
 2018-Dec-06 16:31 Cm  09 21 56.159113 -01 18 07.94244
 2018-Dec-06 16:32 Cm  09 21 58.404824 -01 18 23.51750
 2018-Dec-06 16:33 Cm  09 22 00.650148 -01 18 39.08655
